197P/LINEAR,e,25.5283,66.3692,188.7487,2.868022,0.2029225,0.62941404,309.9352,04/05.0/2022,2000,g 16.5,2.0
# From NK 1596
198P/ODAS,e,1.3386,358.2465,69.1763,3.597580,0.1444403,0.44380735,174.4726,04/05.0/2022,2000,g  9.0,4.0
# From MPEC 2022-F14
199P/Shoemaker,e,24.9321,92.3624,191.7283,5.888891,0.0689690,0.50575051,326.2470,04/05.0/2022,2000,g 10.0,4.0
# From MPEC 2022-C56
200P/Larsen,e,12.0983,234.7683,134.1926,4.943704,0.0896655,0.33269409,87.9030,04/05.0/2022,2000,g  9.0,4.0
# From MPC 93588
201P/LONEOS,e,5.7393,19.7456,41.5467,3.354492,0.1604220,0.63713355,50.2610,04/05.0/2022,2000,g 14.0,4.0
# From MPEC 2021-N06
202P/Scotti,e,2.1134,177.4584,276.4485,4.089506,0.1191784,0.26086003,267.2257,04/05.0/2022,2000,g 13.5,4.0
# From MPEC 2021-S45
203P/Korlevic,e,2.9726,290.3245,154.7807,4.670281,0.0976539,0.31536415,74.3473,04/05.0/2022,2000,g 14.5,2.0
# From MPC 98566
204P/LINEAR-NEAT,e,6.5960,108.5069,356.6099,3.582472,0.1453550,0.48788620,327.1790,04/05.0/2022,2000,g 14.0,4.0
# From MPEC 2021-W31
205P/Giacobini,e,15.3061,179.6021,154.1825,3.543342,0.1477694,0.56818688,12.0136,04/05.0/2022,2000,g 13.0,4.0
# From MPC 75725
206P/Barnard-Boattini,e,33.6351,202.3372,189.5017,3.488931,0.1512396,0.55145810,59.9592,04/05.0/2022,2000,g 19.0,4.0
# From MPC 75725
207P/NEAT,e,10.1953,198.2150,273.0601,3.874856,0.1292173,0.75870839,273.8351,04/05.0/2022,2000,g 16.0,4.0
# From MPEC 2020-W26
208P/McMillan,e,4.4120,36.3401,310.5187,4.043823,0.1212037,0.37408969,254.3848,04/05.0/2022,2000,g 12.5,4.0
# From MPC 90771
209P/LINEAR,e,21.2568,62.7724,152.4469,2.959899,0.1935480,0.67307385,198.9304,04/05.0/2022,2000,g 17.0,2.0
# From MPC105242
210P/Christensen,e,10.2667,93.8192,345.8932,3.163580,0.1751603,0.83336506,127.3570,04/05.0/2022,2000,g 13.5,4.0
# From MPEC 2022-ED3
211P/Hill,e,18.9214,117.1312,4.2820,3.545989,0.1476040,0.34359083,333.0454,04/05.0/2022,2000,g 12.5,4.0
# From MPEC 2021-F20
212P/NEAT,e,22.1796,98.1750,14.0720,3.893592,0.1282858,0.58739909,263.6280,04/05.0/2022,2000,g 17.0,2.0
# From MPC114608
213P/Van Ness,e,10.3810,311.2927,5.6889,3.347050,0.1609573,0.40824355,265.7936,04/05.0/2022,2000,g 10.5,4.0
# From MPC 92986
214P/LINEAR,e,15.1834,348.2491,190.1990,3.619473,0.1431318,0.48586989,335.0588,04/05.0/2022,2000,g 13.0,4.0
# From MPEC 2022-F14
215P/NEAT,e,10.5792,56.6849,262.2905,4.329310,0.1094148,0.16657736,94.9403,04/05.0/2022,2000,g 11.0,4.0
# From MPC100284
216P/LINEAR,e,9.0653,359.8135,151.4595,3.864336,0.1297453,0.44795304,276.7417,04/05.0/2022,2000,g 13.0,4.0
# From MPEC 2021-N06
217P/LINEAR,e,12.8631,125.4601,246.8786,3.949700,0.1255619,0.68910402,216.1528,04/05.0/2022,2000,g 12.0,4.0
# From MPEC 2020-K19
218P/LINEAR,e,2.7291,175.9821,59.6647,3.090922,0.1813727,0.62238101,99.4267,04/05.0/2022,2000,g 16.0,4.0
# From MPC100284
219P/LINEAR,e,11.5358,230.9549,107.5040,3.648339,0.1414364,0.35413112,263.8982,04/05.0/2022,2000,g 11.0,4.0
# From MPEC 2021-BE3
220P/McNaught,e,8.1288,150.1020,180.5689,3.116547,0.1791404,0.50164234,86.0524,04/05.0/2022,2000,g 15.0,4.0
# From MPEC 2021-J28
221P/LINEAR,e,11.4274,229.6973,40.1306,3.456566,0.1533687,0.49280500,16.5497,04/05.0/2022,2000,g 14.5,4.0
# From MPC 92277
222P/LINEAR,e,5.0985,6.7762,346.2615,2.899149,0.1996634,0.71476872,206.5185,04/05.0/2022,2000,g 20.0,4.0
# From MPEC 2021-S45
223P/Skiff,e,27.0266,346.7707,37.8255,4.158907,0.1162078,0.41628784,135.1457,04/05.0/2022,2000,g 12.0,4.0
# From MPC 75727
224P/LINEAR-NEAT,e,13.3025,40.0458,16.6499,3.446330,0.1540525,0.40634793,332.5910,04/05.0/2022,2000,g 15.5,4.0
# From MPC 75727
225P/LINEAR,e,21.3659,14.2019,3.8875,3.649069,0.1413940,0.63835206,290.7036,04/05.0/2022,2000,g 18.0,4.0
# From MPC106349
226P/Pigott-LINEAR-Kowalski,e,44.0369,54.0058,341.0490,3.766861,0.1348139,0.52878450,274.8884,04/05.0/2022,2000,g 12.5,4.0
# From MPC102956
227P/Catalina-LINEAR,e,7.0746,39.9096,100.9162,3.495458,0.1508162,0.53042888,254.9455,04/05.0/2022,2000,g 16.5,2.0
# From MPEC 2020-L06
228P/LINEAR,e,7.9129,30.9835,115.0227,4.168843,0.1157926,0.17623006,87.6615,04/05.0/2022,2000,g 14.5,2.0
# From MPC106349
229P/Gibbs,e,26.0923,157.9109,223.9946,3.928163,0.1265959,0.37758125,225.1108,04/05.0/2022,2000,g 13.0,4.0
# From MPEC 2022-ED3
230P/LINEAR,e,15.4702,106.9843,313.4307,3.450992,0.1537405,0.54541269,2.5624,04/05.0/2022,2000,g 13.0,4.0
# From MPC112394
231P/LINEAR-NEAT,e,12.3217,133.0149,43.9973,4.039150,0.1214141,0.24531766,124.1533,04/05.0/2022,2000,g 14.1,4.0
# From MPC112394
232P/Hill,e,14.6387,56.0168,53.3108,4.477350,0.1040333,0.33434289,113.9607,04/05.0/2022,2000,g 11.5,4.0
# From MPEC 2021-N06
233P/La Sagra,e,11.2857,74.9157,27.0000,3.029459,0.1869203,0.41190311,102.8832,04/05.0/2022,2000,g 15.0,4.0
# From MPC110497
234P/LINEAR,e,11.5352,179.5706,357.2307,3.798503,0.1331329,0.25566925,235.8119,04/05.0/2022,2000,g 12.0,4.0
# From MPC110497
235P/LINEAR,e,9.0765,202.8295,333.4786,3.943805,0.1258435,0.33021928,185.4541,04/05.0/2022,2000,g 12.0,4.0
# From MPC107688
236P/LINEAR,e,16.3429,245.5939,119.2819,3.729216,0.1368604,0.50924749,218.2822,04/05.0/2022,2000,g 14.0,4.0
# From MPEC 2022-ED3
237P/LINEAR,e,14.0147,245.3715,25.2427,3.512204,0.1497389,0.43429664,299.4117,04/05.0/2022,2000,g 14.5,2.0
# From MPC107688
238P/Read,e,1.2641,51.6236,324.2583,3.168286,0.1747702,0.25216834,349.2342,04/05.0/2022,2000,g 14.5,4.0
# From MPEC 2021-F20
239P/LINEAR,e,11.2987,255.9163,220.4102,4.468982,0.1043257,0.63008411,123.2907,04/05.0/2022,2000,g 17.5,2.0
# From MPEC 2021-F20
240P/NEAT,e,23.5197,74.9080,351.9437,3.865456,0.1296890,0.44937043,184.1812,04/05.0/2022,2000,g 12.1,4.0
# From MPEC 2022-ED3
241P/LINEAR,e,21.1058,305.4838,111.4387,4.918905,0.0903444,0.61015697,22.8699,04/05.0/2022,2000,g 13.5,4.0
# From MPEC 2021-S45
242P/Spahr,e,32.5061,180.3813,245.7267,5.491949,0.0765798,0.27844817,283.3953,04/05.0/2022,2000,g  8.0,4.0
# From MPC111774
243P/NEAT,e,7.6405,87.6193,283.5768,3.830475,0.1314695,0.36043828,173.1162,04/05.0/2022,2000,g 12.5,4.0
# From MPEC 2022-ED3
244P/Scotti,e,2.2594,353.9906,93.0621,4.894811,0.0910123,0.19903776,339.4378,04/05.0/2022,2000,g  9.0,4.0
# From MPEC 2022-CN4
245P/WISE,e,21.1951,316.6544,316.8808,4.045959,0.1211077,0.45666637,183.7142,04/05.0/2022,2000,g 14.0,4.0
# From MPEC 2021-WD8
246P/NEAT,e,15.9691,78.6444,176.6419,4.026907,0.1219682,0.28852673,49.3921,04/05.0/2022,2000,g 10.5,4.0
# From MPEC 2021-F20
247P/LINEAR,e,13.6557,54.0162,47.4351,3.968351,0.1246777,0.62434116,152.1978,04/05.0/2022,2000,g 16.5,2.0
# From MPC 75730
248P/Gibbs,e,6.3503,207.7939,209.8518,5.991307,0.0672081,0.63872078,275.3559,04/05.0/2022,2000,g 14.0,4.0
# From MPEC 2021-S45
249P/LINEAR,e,8.3900,239.1274,65.6832,2.763250,0.2145724,0.81994757,138.2945,04/05.0/2022,2000,g 15.5,4.0
# From MPC110497
250P/Larson,e,13.1569,73.4211,46.1518,3.765731,0.1348746,0.39948961,206.3750,04/05.0/2022,2000,g 14.5,4.0
# From MPC104795
251P/LINEAR,e,23.3879,219.3604,31.2828,3.511800,0.1497647,0.50471637,258.2783,04/05.0/2022,2000,g 16.5,2.0
# From MPEC 2021-S45
252P/LINEAR,e,10.4103,190.9369,343.3248,3.049672,0.1850651,0.67181551,49.5444,04/05.0/2022,2000,g 17.5,4.0
# From MPEC 2020-FB5
253P/PANSTARRS,e,4.9435,146.8849,230.6589,3.465711,0.1527621,0.41429118,217.9556,04/05.0/2022,2000,g 14.5,4.0
# From MPEC 2022-F14
254P/McNaught,e,32.5715,129.1781,219.5762,4.613578,0.0994597,0.31978130,54.8938,04/05.0/2022,2000,g 11.0,4.0
# From MPEC 2021-UA9
255P/Levy,e,13.4115,275.6789,185.9936,2.943452,0.1951725,0.71165678,329.6927,04/05.0/2022,2000,g 14.1,4.0
# From MPEC 2022-C56
256P/LINEAR,e,27.6205,81.3432,124.2191,4.638944,0.0986451,0.41798926,326.3266,04/05.0/2022,2000,g 14.0,2.0
# From MPEC 2021-Y10
257P/Catalina,e,20.2208,207.7274,117.7020,3.762844,0.1350299,0.43032273,77.1358,04/05.0/2022,2000,g 11.5,4.0
# From MPEC 2021-U31
258P/PANSTARRS,e,6.7462,126.2438,25.9002,4.396525,0.1069153,0.20843240,70.1101,04/05.0/2022,2000,g 13.0,4.0
# From MPC106349
259P/Garradd,e,15.8904,51.4443,257.6463,2.730889,0.2183977,0.33881228,12.1441,04/05.0/2022,2000,g 15.5,4.0
# From MPEC 2020-SI8
260P/McNaught,e,15.0585,349.3383,18.4225,3.623125,0.1429154,0.60929423,133.9966,04/05.0/2022,2000,g 13.5,4.0
# From MPEC 2021-J28
261P/Larson,e,6.0736,291.1425,67.2009,3.490438,0.1511416,0.42332839,154.2729,04/05.0/2022,2000,g 14.0,4.0
# From MPC 82322
262P/McNaught-Russell,e,29.2581,217.8710,171.0325,6.872988,0.0546998,0.81603709,186.5076,04/05.0/2022,2000,g 13.5,4.0
# From MPC 89018
263P/Gibbs,e,11.5210,105.5370,34.9638,3.043548,0.1856239,0.59354563,304.2107,04/05.0/2022,2000,g  9.0,4.0
# From MPC114608
264P/Larsen,e,25.2209,220.4291,346.7203,3.889671,0.1284798,0.37547664,125.2106,04/05.0/2022,2000,g 13.0,4.0
# From MPC 79870
265P/LINEAR,e,14.3650,342.9258,33.4557,4.254294,0.1123215,0.64757720,47.1636,04/05.0/2022,2000,g 14.5,4.0
# From MPEC 2021-F20
266P/Christensen,e,3.4270,4.9983,97.7187,3.532768,0.1484333,0.33957668,106.2459,04/05.0/2022,2000,g 14.7,4.0
# From MPC114608
267P/LONEOS,e,6.1411,228.5884,114.1976,3.211380,0.1712642,0.61439410,231.4464,04/05.0/2022,2000,g 19.5,4.0
# From MPC 92277
268P/Bernardi,e,15.9316,127.1548,359.8037,4.555587,0.1013649,0.47791301,259.5299,04/05.0/2022,2000,g 14.0,4.0
# From MPC104795
269P/Jedicke,e,7.0767,241.7253,225.7698,7.072703,0.0523994,0.43090046,143.8353,04/05.0/2022,2000,g 10.0,4.0
# From MPC 88332
270P/Gehrels,e,2.9221,223.0046,209.7821,6.662204,0.0573162,0.46823864,184.7056,04/05.0/2022,2000,g  8.0,4.0
# From MPC 92277
271P/van Houten-Lemmon,e,6.8720,9.3169,36.3856,7.039472,0.0527708,0.39502648,168.1417,04/05.0/2022,2000,g 11.0,4.0
# From MPEC 2022-C56
272P/NEAT,e,18.0747,109.4704,27.9030,4.459544,0.1046570,0.45461570,349.2127,04/05.0/2022,2000,g 16.0,2.0
# From MPC 82723
273P/Pons-Gambart,e,136.7681,320.3997,20.3266,31.91469,0.0054666,0.97421758,0.0000,12/19.8388/2012,2000,g 11.5,4.0
# From MPEC 2022-F14
274P/Tombaugh-Tenagra,e,15.8158,81.3400,38.4700,4.375403,0.1076904,0.43932787,359.6264,04/05.0/2022,2000,g 13.0,4.0
# From MPC 81862
